[{"OBJECT_NAME":"STARLINK-31989","OBJECT_ID":"2024-107Q","EPOCH":"2026-03-09T09:34:28.994016","MEAN_MOTION":15.30202679,"ECCENTRICITY":0.00011581,"INCLINATION":53.16,"RA_OF_ASC_NODE":66.7609,"ARG_OF_PERICENTER":87.5405,"MEAN_ANOMALY":272.5728,"EPHEMERIS_TYPE":0,"CLASSIFICATION_TYPE":"U","NORAD_CAT_ID":59959,"ELEMENT_SET_NO":999,"REV_AT_EPOCH":9975,"BSTAR":-2.2658157e-5,"MEAN_MOTION_DOT":-1.03e-5,"MEAN_MOTION_DDOT":0},{"OBJECT_NAME":"CZ-6A DEB","OBJECT_ID":"2024-140BH","EPOCH":"2026-03-09T12:42:23.031936","MEAN_MOTION":15.05550408,"ECCENTRICITY":0.0121353,"INCLINATION":89.148,"RA_OF_ASC_NODE":290.4372,"ARG_OF_PERICENTER":169.3672,"MEAN_ANOMALY":191.0177,"EPHEMERIS_TYPE":0,"CLASSIFICATION_TYPE":"U","NORAD_CAT_ID":60656,"ELEMENT_SET_NO":999,"REV_AT_EPOCH":8464,"BSTAR":0.002338,"MEAN_MOTION_DOT":0.00039913,"MEAN_MOTION_DDOT":0}]
